#dP2024  4  7  0  0  0.00000000      96 __u+U IGS20 FIT  IAC
## 2309      0.00000000   900.00000000 60407 0.0000000000000
+  129   C01C02C03C04C05C06C07C08C09C10C11C12C13C14C16C19C20
+        C21C22C23C24C25C26C27C28C29C30C32C33C34C35C36C37C38
+        C39C40C41C42C43C44C45C46C60E02E03E04E05E07E08E09E10
+        E11E12E13E15E18E19E21E24E25E26E27E30E31E33E34E36G01
+        G02G03G04G05G06G07G08G09G10G11G12G13G14G15G16G17G18
+        G19G20G21G22G23G24G25G26G27G28G29G30G31G32J02J03J04
+        J07R01R02R03R04R05R06R07R08R09R10R11R12R13R14R15R16
+        R17R18R19R20R21R22R23R24R25R26  0  0  0  0  0  0  0
++        18 17 17 17 17  9 10 10 10  9  9  9  9  9  9  7  7
++         7  7  7  7  8  7  7  7  7  7  7  8  8  8  7  7  9
++         9  9  8  8  8  7  7  7 17  4  5  4  5  4  4  5  4
++         4  4  4  5  4  4  4  5  4  4  4  4  5  4  5  5  5
++         4  4  4  4  4  4  4  4  4  4  4  4  4  4  4  4  4
++         4  4  4  4  4  4  4  4  4  4  4  4  4  4 10 11 11
++         0  7  6  6  6  6 16  6  6  6 15  6  6  7  6  6  6
++         6  6  8  8  6  6 15  6  9  9  0  0  0  0  0  0  0
%c M  cc GPS ccc cccc cccc cccc cccc ccccc ccccc ccccc ccccc
%c cc cc ccc ccc cccc cccc cccc cccc ccccc ccccc ccccc ccccc
%f  0.0000000  0.000000000  0.00000000000  0.000000000000000
%f  0.0000000  0.000000000  0.00000000000  0.000000000000000
%i    0    0    0    0      0      0      0      0         0
%i    0    0    0    0      0      0      0      0         0
/* INFORMATION & ANALYSIS CENTER (IAC)            RAPID DATA
/* S/V CLOCKS ARE ALIGNED TO GNSS TIME                      
/* G:C1WC2W R:C1PC2P E:C1XC5X C:C2IC6I J:C1CC2S             
/* PCV:IGS20_2290 OL/AL:FES2004  NONE     YN ORB:CoN CLK:CoN
*  2024 04 07 14  0  0.00000000
PC01 -34252.648209  24551.072323   1154.201930 999999.999999
PC02   4339.808271  41932.410239   1310.985110    581.489954
PC03 -14824.455512  39474.205722   1262.769945    134.162486
PC04 -39590.694700  14458.683349    815.940942   -106.307724
PC05  21902.780002  36055.803614    781.255325   -887.941508
PC06 -15482.792983  37678.323513 -11421.598926    328.737183
PC07  -3835.699171  33314.709428 -25359.033276   -842.574064
PC08 -12973.983999  19012.574139  35281.821781     -4.303463
PC09 -12489.245940  36775.086493 -16705.090905   -729.243467
PC10   3911.537671  36306.596582 -20280.263265     11.415335
PC11   5908.474226 -27171.691193  -2322.643017    499.975426
PC12  15172.395043 -17854.718686  15188.180101   -227.538550
PC13  -3832.227836  21644.161809  36123.836133    429.757471
PC14  -2680.721426 -20250.075013 -19024.653512    587.881690
PC16 -19675.546424  36970.194017  -6000.201243   -443.760901
PC19  11360.572273  22250.963416  12429.096338   -915.358268
PC20  -4993.733166  16004.849750  22316.534553   -335.943828
PC21  19860.444840    589.073548 -19561.492507   -962.367919
PC22  22168.131876  16081.882657  -5262.049170    -47.092779
PC23 -20219.392892  -7328.064201  17783.815665   -775.527395
PC24  18041.335477 -16010.219130  14036.379955    943.824440
PC25  -2263.922432 -16310.177103  22519.663787    368.895581
PC26  26923.946286  -7047.903139  -2293.047127   -273.876717
PC27 -16883.959494   9115.544646 -20289.426618    295.681045
PC28 -13700.801847  -9710.103505 -22285.560669    225.944786
PC29   2022.013136  25906.708147  10172.395881    265.024220
PC30 -10779.490005  24470.613849  -8038.074678    -51.591330
PC32 -19952.546132   -515.211513  19532.163002   -597.362116
PC33 -11483.150386 -22192.609248 -12442.326987   -968.142632
PC34   9912.865841 -25236.286099   6535.732297    407.097323
PC35  14032.164572   9496.862308  22163.539904    392.648624
PC36   1632.073003  16415.654292 -22489.020204     43.873711
PC37 -27066.155874   6236.486098   2579.570084   -954.710497
PC38 -20721.859334  19790.016381  30934.975712    147.551779
PC39 -20754.625364  36846.188251   -270.097360     -7.887194
PC40  -7174.983697  29389.109782 -29258.574237    -64.372352
PC41 -22080.215807 -16494.596723   4506.891701   -920.272293
PC42   6467.019915 -14962.178787 -22607.456807   -443.810972
PC43  -1420.602679 -26247.397980  -9348.153483     67.097979
PC44  16637.333990  -9522.627865  20250.483960    436.671442
PC45  20202.428974   7277.372762 -17838.700453    -79.202607
PC46 -17346.345921  16122.181109 -14740.940946   -138.040693
PC60   7264.276449  41507.236771   1602.630988     -0.549504
PE02 -15099.435118  11634.802663 -22651.317846    117.547536
PE03  -8609.489327  21176.958926  18799.474565   -105.598052
PE04  -5196.999571 -29066.465825  -2095.264854   -367.994179
PE05 -17093.153579   1052.935132  24152.815849   4736.353489
PE07  15505.374567  20155.789499 -15128.188900   -113.238181
PE08   4666.910079  29080.125880   2891.701595   -251.259991
PE09 -15400.310977 -20273.601376  15120.795429   -398.615746
PE10  -5294.613112 -16260.955266 -24166.975872   -615.313127
PE11 -14618.406924  -8004.398600 -24476.309026   3073.832806
PE12   3737.056755 -21272.148458 -20233.998709   -983.525091
PE13  14045.209036   8512.555304  24626.456185    -20.897301
PE15  -4319.403600  21461.535099  19934.139335    -95.717090
PE18  12857.276410 -15288.007736  18154.634409    524.057992
PE19   9850.440956 -19381.043309 -20073.856617   -287.292281
PE21  27746.296402   1224.158052  10232.053463   -588.012820
PE24 -24410.524026 -14143.465858   8906.312276   -694.378993
PE25 -27858.929969  -1510.550703  -9884.365018      3.063200
PE26  24057.864855  -9627.735035  14303.091056    418.984302
PE27  24659.062166  13915.124353  -8649.243885   -318.403641
PE30   6818.114367  18317.126509 -22249.159477   -174.471236
PE31  -7067.453358 -18250.406223  22206.177544    -20.221352
PE33  20162.921239 -21444.361853  -3108.126751     10.095942
PE34 -19837.986510  21667.589755   3624.455988   -104.340019
PE36 -23905.304004   9202.626884 -14847.330511   -210.071212
PG01   6126.493617 -20268.624078 -16173.639495    178.458874
PG02  13909.280716 -21699.744540  -5291.225407   -457.382998
PG03   5116.915810 -13902.164971 -22189.929013    297.332552
PG04   2972.023762 -23664.282122 -11531.331488    333.290766
PG05 -19231.236509   7326.355718  16666.119800   -168.268350
PG06 -17519.953262  -1325.547531 -19889.863556    332.974161
PG07  -3375.989302 -17096.292493  20420.187723   -101.998776
PG08   8585.542127 -16915.594499  18305.078256    107.191014
PG09  -7609.318780 -25408.185828    553.943985    151.946257
PG10  23577.598803  10977.202313   6379.027183     -6.303078
PG11 -22145.468043   9357.177946 -11214.254788   -629.740073
PG12  -7467.150388  13517.727205 -21892.155622   -494.410817
PG13 -13579.965026   8193.722224  21061.656016    640.762363
PG14 -21045.997089 -13465.864649   9328.967344    370.341899
PG15  -6534.845530  18090.102593  17739.580701    145.900434
PG16  22849.561336  -1486.439039  13499.158844   -322.558138
PG17 -12517.944592 -19416.773983 -12544.637818    711.216633
PG18   3315.483183  16217.151934  20739.220630   -590.234863
PG19 -14996.928130 -11111.478720 -19223.881710    464.878566
PG20 -25566.443398   2248.276784   6585.618697    381.054202
PG21  16741.925931 -19886.993663   -194.529008    128.203056
PG22 -24112.525116 -10629.618385   2024.820086      4.065127
PG23  14762.266331  14993.684091  16348.682367    195.276533
PG24 -14182.131151  21839.411020  -4356.552272   -456.510288
PG25   4318.545412  16459.477959 -20792.482630    493.218389
PG26  26415.969187   3834.380487   1745.267901    169.797229
PG27  14357.067029  -4509.697522  21590.013276    -17.149124
PG28  16286.287617   3793.564541 -20648.924030   -193.997226
PG29   3695.999106  26208.188329  -1386.878012   -602.612401
PG30 -13163.674778  -9123.961221  21347.510901   -408.689064
PG31  21476.782135  -5448.734607 -15144.869673   -228.033208
PG32  14913.188016  16427.896723 -14538.931894   -617.753381
PJ02 -27204.130361  16087.872836 -23299.181139     -3.779364
PJ03 -26915.613629  31853.096638  -1711.964315     -0.094555
PJ04 -25864.889624  26163.844173  26490.691733     50.508279
PJ07      0.000000      0.000000      0.000000 999999.999999
PR01  -6937.324133 -19972.609961 -14275.512091     81.816552
PR02 -15744.764628 -19872.888525   2534.903571    -22.688777
PR03 -16342.649120  -8066.383269  17873.635961     97.804433
PR04  -7813.950675   7496.173230  23131.651056    230.975669
PR05   4707.898882  19322.324486  16003.763352    129.610120
PR06  16897.847003  18763.539063  -3672.731114   -158.049094
PR07  16105.723629   7442.056322 -18300.813016     79.690502
PR08   7666.074247  -7797.541360 -22977.341652    -74.996096
PR09  15284.014404   7328.225925 -19012.390258    179.687191
PR10  24559.154810    289.127946  -7043.186556   -146.431777
PR11  21616.986946  -7911.900012  10978.673957     28.715389
PR12   3973.134984 -11331.996623  22527.720347     38.718658
PR13 -12906.820198  -8220.174515  20391.315980    -46.059100
PR14 -25039.813815    728.472006   4877.217725     26.348442
PR15 -20745.143827   8337.414484 -12270.222922     80.690591
PR16  -4259.138439  11206.926646 -22512.975633     24.612114
PR17 -12646.427912   3870.119738 -21800.012777     75.892897
PR18 -13925.244833  18376.299459 -10962.213819    135.999186
PR19  -9690.079771  23282.434102   3843.361862   -272.210846
PR20   3076.461948  14519.779199  20764.453525   -110.895629
PR21  12633.861245  -3875.604981  21818.446768    -90.837102
PR22  14408.861293 -18563.707043   9924.758534    115.518711
PR23   7347.758895 -23315.360106  -7277.377363 999999.999999
PR24  -4437.418005 -14054.480879 -20808.751432    -50.886480
PR25  13140.704490  -3483.549922  21590.136359    -27.650549
PR26   8362.939100  -6894.465055 -23064.652004    -26.184206
EOF
